
# Worst residual: 192.48 km
# MJD 60132.000000 (2023 Jul  7  0:00)
C3QHGW1
1 79967U 23999ZZR 23188.49919926  .00000000  00000-0  00000-0 0 19453
2 79967 018.9698 050.1885 7166767 040.4026 061.8722 00.95477680    06

# Worst residual: 152.11 km
# MJD 60133.000000 (2023 Jul  8  0:00)
C3QHGW1
1 79967U 23999ZZR 23189.49919926  .00000000  00000-0  00000-0 0 19454
2 79967 019.0561 050.3603 7127623 041.0995 042.7412 00.95537266    08

# Worst residual: 178.26 km
# MJD 60134.000000 (2023 Jul  9  0:00)
C3QHGW1
1 79967U 23999ZZR 23190.49919926  .00000000  00000-0  00000-0 0 19456
2 79967 019.1192 050.4867 7087548 041.8528 023.5851 00.95520890    02

# Worst residual: 214.06 km
# MJD 60135.000000 (2023 Jul 10  0:00)
C3QHGW1
1 79967U 23999ZZR 23191.49919926  .00000000  00000-0  00000-0 0 19457
2 79967 019.1815 050.6048 7050840 042.6318 004.4158 00.95447687    08

# Worst residual: 237.00 km
# MJD 60136.000000 (2023 Jul 11  0:00)
C3QHGW1
1 79967U 23999ZZR 23192.49919926  .00000000  00000-0  00000-0 0 19458
2 79967 019.2437 050.7266 7011406 043.3783 345.3050 00.95333792    00

# Worst residual: 215.55 km
# MJD 60137.000000 (2023 Jul 12  0:00)
C3QHGW1
1 79967U 23999ZZR 23193.49919926  .00000000  00000-0  00000-0 0 19459
2 79967 019.2824 050.7782 6976202 044.1739 326.1780 00.95147236    09

# Worst residual: 237.08 km
# MJD 60138.000000 (2023 Jul 13  0:00)
C3QHGW1
1 79967U 23999ZZR 23194.49919926  .00000000  00000-0  00000-0 0 19450
2 79967 019.3410 050.8956 6934876 044.9032 306.9747 00.94998253    01

# Worst residual: 222.19 km
# MJD 60139.000000 (2023 Jul 14  0:00)
C3QHGW1
1 79967U 23999ZZR 23195.49919926  .00000000  00000-0  00000-0 0 19451
2 79967 019.3707 050.9348 6896130 045.7084 287.6583 00.94835915    00

# Worst residual: 202.54 km
# MJD 60140.000000 (2023 Jul 15  0:00)
C3QHGW1
1 79967U 23999ZZR 23196.49919926  .00000000  00000-0  00000-0 0 19452
2 79967 019.4205 051.0073 6851598 046.4723 268.1698 00.94684006    02

# Worst residual: 120.84 km
# MJD 60141.000000 (2023 Jul 16  0:00)
C3QHGW1
1 79967U 23999ZZR 23197.49919926  .00000000  00000-0  00000-0 0 19453
2 79967 019.4469 051.0547 6807541 047.2958 248.4815 00.94556600    08

# Worst residual: 62.53 km
# MJD 60142.000000 (2023 Jul 17  0:00)
C3QHGW1
1 79967U 23999ZZR 23198.49919926  .00000000  00000-0  00000-0 0 19454
2 79967 019.4675 051.1004 6762022 048.1389 228.5635 00.94430859    04

# Worst residual: 81.20 km
# MJD 60143.000000 (2023 Jul 18  0:00)
C3QHGW1
1 79967U 23999ZZR 23199.49919926  .00000000  00000-0  00000-0 0 19455
2 79967 019.4940 051.1324 6722073 049.0410 208.3688 00.94357938    01

# Worst residual: 85.89 km
# MJD 60144.000000 (2023 Jul 19  0:00)
C3QHGW1
1 79967U 23999ZZR 23200.49919926  .00000000  00000-0  00000-0 0 19458
2 79967 019.5210 051.1432 6685096 049.9545 187.9696 00.94331408    08

# Worst residual: 148.99 km
# MJD 60145.000000 (2023 Jul 20  0:00)
C3QHGW1
1 79967U 23999ZZR 23201.49919926  .00000000  00000-0  00000-0 0 19459
2 79967 019.5503 051.2147 6655550 050.8183 167.3140 00.94358351    00

# Worst residual: 232.15 km
# MJD 60146.000000 (2023 Jul 21  0:00)
C3QHGW1
1 79967U 23999ZZR 23202.49919926  .00000000  00000-0  00000-0 0 19450
2 79967 019.5437 051.1195 6629117 051.7668 146.5237 00.94430520    01

# Worst residual: 222.32 km
# MJD 60147.000000 (2023 Jul 22  0:00)
C3QHGW1
1 79967U 23999ZZR 23203.49919926  .00000000  00000-0  00000-0 0 19451
2 79967 019.5662 051.1875 6594014 052.5859 125.4373 00.94477562    08

# Worst residual: 233.35 km
# MJD 60148.000000 (2023 Jul 23  0:00)
C3QHGW1
1 79967U 23999ZZR 23204.49919926  .00000000  00000-0  00000-0 0 19452
2 79967 019.5781 051.1848 6555621 053.4539 104.1119 00.94540560    07

# Worst residual: 219.28 km
# MJD 60149.000000 (2023 Jul 24  0:00)
C3QHGW1
1 79967U 23999ZZR 23205.49919926  .00000000  00000-0  00000-0 0 19453
2 79967 019.5975 051.2427 6515007 054.2867 082.4481 00.94610971    07

# Worst residual: 182.87 km
# MJD 60150.000000 (2023 Jul 25  0:00)
C3QHGW1
1 79967U 23999ZZR 23206.49919926  .00000000  00000-0  00000-0 0 19454
2 79967 019.5828 051.1590 6471506 055.2709 060.4997 00.94665096    01

# Worst residual: 139.51 km
# MJD 60151.000000 (2023 Jul 26  0:00)
C3QHGW1
1 79967U 23999ZZR 23207.49919926  .00000000  00000-0  00000-0 0 19455
2 79967 019.5947 051.1314 6429112 056.2843 038.1352 00.94621557    04

# Worst residual: 181.01 km
# MJD 60152.000000 (2023 Jul 27  0:00)
C3QHGW1
1 79967U 23999ZZR 23208.49919926  .00000000  00000-0  00000-0 0 19456
2 79967 019.5941 051.0721 6388039 057.3263 015.5201 00.94520171    01

# Worst residual: 223.60 km
# MJD 60153.000000 (2023 Jul 28  0:00)
C3QHGW1
1 79967U 23999ZZR 23209.49919926  .00000000  00000-0  00000-0 0 19457
2 79967 019.5957 051.0440 6347895 058.3558 352.6814 00.94337071    09

# Worst residual: 231.40 km
# MJD 60154.000000 (2023 Jul 29  0:00)
C3QHGW1
1 79967U 23999ZZR 23210.49919926  .00000000  00000-0  00000-0 0 19459
2 79967 019.5948 051.0005 6310844 059.3811 329.6479 00.94152495    09

# Worst residual: 223.52 km
# MJD 60155.000000 (2023 Jul 30  0:00)
C3QHGW1
1 79967U 23999ZZR 23211.49919926  .00000000  00000-0  00000-0 0 19450
2 79967 019.5858 050.9865 6270433 060.3618 306.4614 00.93935592    07

# Worst residual: 209.47 km
# MJD 60156.000000 (2023 Jul 31  0:00)
C3QHGW1
1 79967U 23999ZZR 23212.49919926  .00000000  00000-0  00000-0 0 19451
2 79967 019.5885 050.9230 6228620 061.4156 283.0838 00.93743345    04
